NORAD_CAT_ID,OBJECT_NAME,OBJECT_TYPE,EPOCH,MEAN_MOTION,ECCENTRICITY,INCLINATION,RA_OF_ASC_NODE,ARG_OF_PERICENTER,MEAN_ANOMALY,BSTAR,MEAN_MOTION_DOT,MEAN_MOTION_DDOT,TLE_LINE0,TLE_LINE1,TLE_LINE2,SEMIMAJOR_AXIS,PERIOD,APOGEE,PERIGEE,DECAYED
52278.0,STARLINK-3780,PAYLOAD,2024-04-28 17:07:21,15.08837045,0.0001082,53.217,281.6523,86.7853,273.3262,-0.00010274,-1.922e-05,0.0,0 STARLINK-3780,1 52278U 22041T   24119.71344353 -.00001922  00000-0 -10274-3 0  9993,2 52278  53.2170 281.6523 0001082  86.7853 273.3262 15.08837045112931,6917.889,95.438,540.503,539.006,0.0
52278.0,STARLINK-3780,PAYLOAD,2024-04-29 04:15:02,15.08848235,0.0001329,53.2171,279.57,90.5082,269.6062,-2.4905e-05,-6.84e-06,0.0,0 STARLINK-3780,1 52278U 22041T   24120.17711286 -.00000684  00000-0 -24905-4 0  9999,2 52278  53.2171 279.5700 0001329  90.5082 269.6062 15.08848235113004,6917.855,95.437,540.64,538.801,0.0
52278.0,STARLINK-3780,PAYLOAD,2024-04-29 13:47:22,15.08825698,0.0001266,53.2186,277.7862,102.0167,258.0967,0.00016381,2.319e-05,0.0,0 STARLINK-3780,1 52278U 22041T   24120.57456187  .00002319  00000-0  16381-3 0  9992,2 52278  53.2186 277.7862 0001266 102.0167 258.0967 15.08825698111846,6917.924,95.438,540.665,538.913,0.0
52278.0,STARLINK-3780,PAYLOAD,2024-04-29 20:08:54,15.0884061,0.0001344,53.2183,276.5957,97.6444,262.4701,-1.1549e-05,-4.72e-06,0.0,0 STARLINK-3780,1 52278U 22041T   24120.83951907 -.00000472  00000-0 -11549-4 0  9993,2 52278  53.2183 276.5957 0001344  97.6444 262.4701 15.08840610113106,6917.879,95.438,540.673,538.814,0.0
52278.0,STARLINK-3780,PAYLOAD,2024-04-30 13:38:09,15.08834111,0.0001378,53.2181,273.3247,92.3388,267.7762,9.2049e-05,1.177e-05,0.0,0 STARLINK-3780,1 52278U 22041T   24121.56815992  .00001177  00000-0  92049-4 0  9992,2 52278  53.2181 273.3247 0001378  92.3388 267.7762 15.08834111111996,6917.898,95.438,540.717,538.81,0.0
52278.0,STARLINK-3780,PAYLOAD,2024-04-30 16:48:55,15.08837898,0.0001196,53.2178,272.7318,86.3885,273.7244,4.0835e-05,3.62e-06,0.0,0 STARLINK-3780,1 52278U 22041T   24121.70064022  .00000362  00000-0  40835-4 0  9999,2 52278  53.2178 272.7318 0001196  86.3885 273.7244 15.08837898112018,6917.887,95.438,540.579,538.924,0.0
52278.0,STARLINK-3780,PAYLOAD,2024-05-01 10:18:10,15.08821873,0.0001246,53.2175,269.4601,91.4183,268.6952,0.00029034,4.334e-05,0.0,0 STARLINK-3780,1 52278U 22041T   24122.42928383  .00004334  00000-0  29034-3 0  9998,2 52278  53.2175 269.4601 0001246  91.4183 268.6952 15.08821873113349,6917.936,95.439,540.663,538.939,0.0
52278.0,STARLINK-3780,PAYLOAD,2024-05-01 16:39:42,15.08829006,0.0001203,53.2172,268.2703,92.8562,267.2568,0.00022922,3.361e-05,0.0,0 STARLINK-3780,1 52278U 22041T   24122.69424232  .00003361  00000-0  22922-3 0  9999,2 52278  53.2172 268.2703 0001203  92.8562 267.2568 15.08829006112168,6917.914,95.438,540.611,538.947,0.0
52278.0,STARLINK-3780,PAYLOAD,2024-05-02 13:19:43,15.08833508,0.0001109,53.2162,264.4052,86.6784,273.4335,-5.4398e-07,-2.96e-06,0.0,0 STARLINK-3780,1 52278U 22041T   24123.55536611 -.00000296  00000-0 -54398-6 0  9991,2 52278  53.2162 264.4052 0001109  86.6784 273.4335 15.08833508113517,6917.9,95.438,540.532,538.998,0.0
52278.0,STARLINK-3780,PAYLOAD,2024-05-02 14:55:06,15.08833599,0.0001108,53.216,264.1078,86.3988,273.713,-1.3139e-07,-2.9e-06,0.0,0 STARLINK-3780,1 52278U 22041T   24123.62160619 -.00000290  00000-0 -13139-6 0  9992,2 52278  53.2160 264.1078 0001108  86.3988 273.7130 15.08833599112304,6917.9,95.438,540.531,538.998,0.0
52278.0,STARLINK-3780,PAYLOAD,2024-05-03 02:02:48,15.08842985,0.0001163,53.2167,262.0257,84.0346,276.0778,7.0161e-05,8.29e-06,0.0,0 STARLINK-3780,1 52278U 22041T   24124.08527802  .00000829  00000-0  70161-4 0  9996,2 52278  53.2167 262.0257 0001163  84.0346 276.0778 15.08842985113596,6917.871,95.437,540.541,538.932,0.0
52278.0,STARLINK-3780,PAYLOAD,2024-05-03 13:10:29,15.08842872,8.89e-05,53.2176,259.9461,85.9852,274.1242,5.7068e-05,6.21e-06,0.0,0 STARLINK-3780,1 52278U 22041T   24124.54895825  .00000621  00000-0  57068-4 0  9991,2 52278  53.2176 259.9461 0000889  85.9852 274.1242 15.08842872112447,6917.872,95.437,540.352,539.122,0.0
52278.0,STARLINK-3780,PAYLOAD,2024-05-03 17:56:38,15.08848289,0.0001251,53.2173,259.0548,95.3217,264.7918,9.7505e-05,1.265e-05,0.0,0 STARLINK-3780,1 52278U 22041T   24124.74767298  .00001265  00000-0  97505-4 0  9990,2 52278  53.2173 259.0548 0001251  95.3217 264.7918 15.08848289112471,6917.855,95.437,540.585,538.855,0.0
52278.0,STARLINK-3780,PAYLOAD,2024-05-04 01:53:33,15.088552,0.0001525,53.2158,257.5662,75.3574,284.7587,0.00017434,2.489e-05,0.0,0 STARLINK-3780,1 52278U 22041T   24125.07886479  .00002489  00000-0  17434-3 0  9991,2 52278  53.2158 257.5662 0001525  75.3574 284.7587 15.08855200113748,6917.834,95.437,540.754,538.644,0.0
52278.0,STARLINK-3780,PAYLOAD,2024-05-04 13:01:18,15.08821516,0.0001173,53.2159,255.4849,84.5932,275.5194,-3.5282e-05,-8.49e-06,0.0,0 STARLINK-3780,1 52278U 22041T   24125.54257250 -.00000849  00000-0 -35282-4 0  9994,2 52278  53.2159 255.4849 0001173  84.5932 275.5194 15.08821516113815,6917.937,95.439,540.613,538.99,0.0
52278.0,STARLINK-3780,PAYLOAD,2024-05-05 01:44:22,15.08837848,0.0001321,53.2167,253.1069,83.7481,276.3662,-1.1928e-05,-4.78e-06,0.0,0 STARLINK-3780,1 52278U 22041T   24126.07248426 -.00000478  00000-0 -11928-4 0  9997,2 52278  53.2167 253.1069 0001321  83.7481 276.3662 15.08837848113890,6917.887,95.438,540.666,538.838,0.0
52278.0,STARLINK-3780,PAYLOAD,2024-05-05 14:27:27,15.08838757,0.0001424,53.2165,250.7284,80.1835,279.9318,3.6184e-07,-2.82e-06,0.0,0 STARLINK-3780,1 52278U 22041T   24126.60240521 -.00000282  00000-0  36184-6 0  9999,2 52278  53.2165 250.7284 0001424  80.1835 279.9318 15.08838757112759,6917.884,95.438,540.734,538.764,0.0
52278.0,STARLINK-3780,PAYLOAD,2024-05-05 16:02:50,15.08840355,0.000143,53.2166,250.4305,93.9225,266.1931,1.395e-05,-6.6e-07,0.0,0 STARLINK-3780,1 52278U 22041T   24126.66864379 -.00000066  00000-0  13950-4 0  9992,2 52278  53.2166 250.4305 0001430  93.9225 266.1931 15.08840355112760,6917.879,95.438,540.734,538.755,0.0
52278.0,STARLINK-3780,PAYLOAD,2024-05-06 01:35:08,15.0885349,0.000136,53.2164,248.6466,76.4759,283.6385,6.2863e-06,-1.88e-06,0.0,0 STARLINK-3780,1 52278U 22041T   24127.06607443 -.00000188  00000-0  62863-5 0  9997,2 52278  53.2164 248.6466 0001360  76.4759 283.6385 15.08853490114049,6917.839,95.437,540.645,538.763,0.0
52278.0,STARLINK-3780,PAYLOAD,2024-05-06 12:42:51,15.08831275,0.0001414,53.2166,246.5631,87.6194,272.496,0.00016462,2.332e-05,0.0,0 STARLINK-3780,1 52278U 22041T   24127.52976470  .00002332  00000-0  16462-3 0  9991,2 52278  53.2166 246.5631 0001414  87.6194 272.4960 15.08831275114119,6917.907,95.438,540.75,538.794,0.0
52278.0,STARLINK-3780,PAYLOAD,2024-05-06 14:18:14,15.08832924,0.0001528,53.2163,246.2648,90.2644,269.8523,0.00014011,1.942e-05,0.0,0 STARLINK-3780,1 52278U 22041T   24127.59600471  .00001942  00000-0  14011-3 0  9997,2 52278  53.2163 246.2648 0001528  90.2644 269.8523 15.08832924112909,6917.902,95.438,540.824,538.71,0.0
52278.0,STARLINK-3780,PAYLOAD,2024-05-07 01:25:55,15.08848361,0.000117,53.2169,244.1864,77.77,282.3423,0.00016041,2.267e-05,0.0,0 STARLINK-3780,1 52278U 22041T   24128.05967307  .00002267  00000-0  16041-3 0  9999,2 52278  53.2169 244.1864 0001170  77.7700 282.3423 15.08848361114192,6917.855,95.437,540.529,538.91,0.0
52278.0,STARLINK-3780,PAYLOAD,2024-05-07 12:33:39,15.08822595,0.0001418,53.2174,242.1055,80.8847,279.2306,-6.443e-05,-1.313e-05,0.0,0 STARLINK-3780,1 52278U 22041T   24128.52337956 -.00001313  00000-0 -64430-4 0  9991,2 52278  53.2174 242.1055 0001418  80.8847 279.2306 15.08822595114264,6917.934,95.439,540.78,538.818,0.0
52278.0,STARLINK-3780,PAYLOAD,2024-05-07 14:09:02,15.0883466,0.0001082,53.2168,241.806,93.2747,266.8369,-4.0079e-05,-9.25e-06,0.0,0 STARLINK-3780,1 52278U 22041T   24128.58961111 -.00000925  00000-0 -40079-4 0  9994,2 52278  53.2168 241.8060 0001082  93.2747 266.8369 15.08834660113056,6917.897,95.438,540.51,539.013,0.0
52278.0,STARLINK-3780,PAYLOAD,2024-05-07 17:19:48,15.0883502,0.0001089,53.2167,241.2111,94.2458,265.8658,-3.4556e-05,-8.38e-06,0.0,0 STARLINK-3780,1 52278U 22041T   24128.72209109 -.00000838  00000-0 -34556-4 0  9998,2 52278  53.2167 241.2111 0001089  94.2458 265.8658 15.08835020114291,6917.896,95.438,540.514,539.007,0.0
52278.0,STARLINK-3780,PAYLOAD,2024-05-08 12:24:25,15.08839881,0.00012,53.2177,237.6444,90.1752,269.9378,0.00010718,1.418e-05,0.0,0 STARLINK-3780,1 52278U 22041T   24129.51696691  .00001418  00000-0  10718-3 0  9998,2 52278  53.2177 237.6444 0001200  90.1752 269.9378 15.08839881114414,6917.881,95.438,540.576,538.916,0.0
52278.0,STARLINK-3780,PAYLOAD,2024-05-08 13:59:48,15.08842416,0.0001182,53.2158,237.3465,87.6395,272.4732,0.00011502,1.543e-05,0.0,0 STARLINK-3780,1 52278U 22041T   24129.58320427  .00001543  00000-0  11502-3 0  9997,2 52278  53.2158 237.3465 0001182  87.6395 272.4732 15.08842416113203,6917.873,95.437,540.556,538.92,0.0
52278.0,STARLINK-3780,PAYLOAD,2024-05-09 12:15:13,15.08829316,9.39e-05,53.2159,233.1806,93.2947,266.8152,0.00017217,2.453e-05,0.0,0 STARLINK-3780,1 52278U 22041T   24130.51057092  .00002453  00000-0  17217-3 0  9997,2 52278  53.2159 233.1806 0000939  93.2947 266.8152 15.08829316114569,6917.913,95.438,540.428,539.128,0.0
52278.0,STARLINK-3780,PAYLOAD,2024-05-09 13:50:36,15.08837718,0.0001001,53.2161,232.8872,100.6461,259.4644,8.3897e-05,1.048e-05,0.0,0 STARLINK-3780,1 52278U 22041T   24130.57680900  .00001048  00000-0  83897-4 0  9990,2 52278  53.2161 232.8872 0001001 100.6461 259.4644 15.08837718113351,6917.887,95.438,540.445,539.06,0.0
52278.0,STARLINK-3780,PAYLOAD,2024-05-10 13:41:23,15.08837602,0.0001075,53.2166,228.4246,98.1109,262.0005,7.9213e-06,-1.62e-06,0.0,0 STARLINK-3780,1 52278U 22041T   24131.57041416 -.00000162  00000-0  79213-5 0  9999,2 52278  53.2166 228.4246 0001075  98.1109 262.0005 15.08837602114728,6917.888,95.438,540.496,539.009,0.0
